[{"OBJECT_NAME":"STARLINK-2031","OBJECT_ID":"2021-012AE","EPOCH":"2026-03-09T22:49:12.010080","MEAN_MOTION":15.30088905,"ECCENTRICITY":0.0001163,"INCLINATION":53.1588,"RA_OF_ASC_NODE":48.339,"ARG_OF_PERICENTER":82.9561,"MEAN_ANOMALY":277.1572,"EPHEMERIS_TYPE":0,"CLASSIFICATION_TYPE":"U","NORAD_CAT_ID":47648,"ELEMENT_SET_NO":999,"REV_AT_EPOCH":28034,"BSTAR":0.0019887942,"MEAN_MOTION_DOT":0.00058807,"MEAN_MOTION_DDOT":0},{"OBJECT_NAME":"VSP RF C1","OBJECT_ID":"2024-043AQ","EPOCH":"2026-03-09T21:56:05.358624","MEAN_MOTION":15.29409663,"ECCENTRICITY":0.00093965,"INCLINATION":97.5441,"RA_OF_ASC_NODE":205.1792,"ARG_OF_PERICENTER":219.6172,"MEAN_ANOMALY":140.4382,"EPHEMERIS_TYPE":0,"CLASSIFICATION_TYPE":"U","NORAD_CAT_ID":59136,"ELEMENT_SET_NO":999,"REV_AT_EPOCH":11190,"BSTAR":0.00026222052,"MEAN_MOTION_DOT":7.409e-5,"MEAN_MOTION_DDOT":0}]
